{"type": "FeatureCollection", "features": [ {"type": "Feature", "properties": {"norad_id": 66455, "name": "ATLAS 5 CENTAUR R/B", "group": "last-30-days", "lat": -5.325291798826025, "lon": 171.67295506824468, "alt_km": 13891.603104831367, "timestamp": "2025-12-10T09:57:43.488102+00:00", "meta": {"OBJECT_NAME": "ATLAS 5 CENTAUR R/B", "OBJECT_ID": "2025-261B", "EPOCH": "2025-12-09T12:36:12.496896", "MEAN_MOTION": 2.28259633, "ECCENTRICITY": 0.23295155, "INCLINATION": 6.1498, "RA_OF_ASC_NODE": 291.938, "ARG_OF_PERICENTER": 185.838, "MEAN_ANOMALY": 23.1887, "EPHEMERIS_TYPE": 0, "CLASSIFICATION_TYPE": "U", "NORAD_CAT_ID": 66455, "ELEMENT_SET_NO": 999, "REV_AT_EPOCH": 57, "BSTAR": 0, "MEAN_MOTION_DOT": -8e-07, "MEAN_MOTION_DDOT": 0}, "tle": {"line1": "1 66455U 25261B   25343.52514464 -.00000080  00000+0  00000+0 0  9997", "line2": "2 66455   6.1498 291.9380 2329515 185.8380  23.1887  2.28259633   579"}}, "geometry": {"type": "Point", "coordinates": [171.67295506824468, -5.325291798826025]}}, {"type": "Feature", "properties": {"norad_id": 66456, "name": "STARLINK-35643", "group": "last-30-days", "lat": -14.927092255418641, "lon": -78.37140007735131, "alt_km": 445.4500278751675, "timestamp": "2025-12-10T09:57:43.488114+00:00", "meta": {"OBJECT_NAME": "STARLINK-35643", "OBJECT_ID": "2025-262A", "EPOCH": "2025-12-10T04:00:01.998720", "MEAN_MOTION": 15.40622914, "ECCENTRICITY": 0.0001349, "INCLINATION": 43.0001, "RA_OF_ASC_NODE": 86.4368, "ARG_OF_PERICENTER": 279.5216, "MEAN_ANOMALY": 343.2865, "EPHEMERIS_TYPE": 0, "CLASSIFICATION_TYPE": "U", "NORAD_CAT_ID": 66456, "ELEMENT_SET_NO": 999, "REV_AT_EPOCH": 522, "BSTAR": 0.0020738, "MEAN_MOTION_DOT": 0.00087095, "MEAN_MOTION_DDOT": 0}, "tle": {"line1": "1 66456U 25262A   25344.16668980  .00087095  00000+0  20738-2 0  9996", "line2": "2 66456  43.0001  86.4368 0001349 279.5216 343.2865 15.40622914  5225"}}, "geometry": {"type": "Point", "coordinates": [-78.37140007735131, -14.927092255418641]}}, {"type": "Feature", "properties": {"norad_id": 66457, "name": "STARLINK-35466", "group": "last-30-days", "lat": -29.945021651980017, "lon": -56.871657428541155, "alt_km": 446.5343261887083, "timestamp": "2025-12-10T09:57:43.488151+00:00", "meta": {"OBJECT_NAME": "STARLINK-35466", "OBJECT_ID": "2025-262B", "EPOCH": "2025-12-10T04:00:01.998720", "MEAN_MOTION": 15.40615051, "ECCENTRICITY": 0.0001182, "INCLINATION": 43.0002, "RA_OF_ASC_NODE": 86.3755, "ARG_OF_PERICENTER": 291.7354, "MEAN_ANOMALY": 355.9665, "EPHEMERIS_TYPE": 0, "CLASSIFICATION_TYPE": "U", "NORAD_CAT_ID": 66457, "ELEMENT_SET_NO": 999, "REV_AT_EPOCH": 522, "BSTAR": 0.0022119, "MEAN_MOTION_DOT": 0.00092963, "MEAN_MOTION_DDOT": 0}, "tle": {"line1": "1 66457U 25262B   25344.16668980  .00092963  00000+0  22119-2 0  9992", "line2": "2 66457  43.0002  86.3755 0001182 291.7354 355.9665 15.40615051  5222"}}, "geometry": {"type": "Point", "coordinates": [-56.871657428541155, -29.945021651980017]}}, {"type": "Feature", "properties": {"norad_id": 66458, "name": "STARLINK-35684", "group": "last-30-days", "lat": -22.76630197721467, "lon": -68.25932390701652, "alt_km": 446.19637323709503, "timestamp": "2025-12-10T09:57:43.488162+00:00", "meta": {"OBJECT_NAME": "STARLINK-35684", "OBJECT_ID": "2025-262C", "EPOCH": "2025-12-10T04:00:01.998720", "MEAN_MOTION": 15.40548153, "ECCENTRICITY": 0.0001374, "INCLINATION": 43, "RA_OF_ASC_NODE": 86.4054, "ARG_OF_PERICENTER": 284.6206, "MEAN_ANOMALY": 350.6391, "EPHEMERIS_TYPE": 0, "CLASSIFICATION_TYPE": "U", "NORAD_CAT_ID": 66458, "ELEMENT_SET_NO": 999, "REV_AT_EPOCH": 522, "BSTAR": 0.0029507, "MEAN_MOTION_DOT": 0.00124353, "MEAN_MOTION_DDOT": 0}, "tle": {"line1": "1 66458U 25262C   25344.16668980  .00124353  00000+0  29507-2 0  9990", "line2": "2 66458  43.0000  86.4054 0001374 284.6206 350.6391 15.40548153  5220"}}, "geometry": {"type": "Point", "coordinates": [-68.25932390701652, -22.76630197721467]}}, {"type": "Feature", "properties": {"norad_id": 66459, "name": "STARLINK-35449", "group": "last-30-days", "lat": -35.973468930037136, "lon": -43.926411113979896, "alt_km": 446.4488649499899, "timestamp": "2025-12-10T09:57:43.488173+00:00", "meta": {"OBJECT_NAME": "STARLINK-35449", "OBJECT_ID": "2025-262D", "EPOCH": "2025-12-10T04:00:01.998720", "MEAN_MOTION": 15.4059319, "ECCENTRICITY": 0.0001235, "INCLINATION": 43.0002, "RA_OF_ASC_NODE": 86.3443, "ARG_OF_PERICENTER": 260.4655, "MEAN_ANOMALY": 39.6862, "EPHEMERIS_TYPE": 0, "CLASSIFICATION_TYPE": "U", "NORAD_CAT_ID": 66459, "ELEMENT_SET_NO": 999, "REV_AT_EPOCH": 522, "BSTAR": 0.0030368, "MEAN_MOTION_DOT": 0.0012825, "MEAN_MOTION_DDOT": 0}, "tle": {"line1": "1 66459U 25262D   25344.16668980  .00128250  00000+0  30368-2 0  9998", "line2": "2 66459  43.0002  86.3443 0001235 260.4655  39.6862 15.40593190  5228"}}, "geometry": {"type": "Point", "coordinates": [-43.926411113979896, -35.973468930037136]}}, {"type": "Feature", "properties": {"norad_id": 66460, "name": "STARLINK-35424", "group": "last-30-days", "lat": -40.391543953774445, "lon": -29.18950000374414, "alt_km": 446.3609995144261, "timestamp": "2025-12-10T09:57:43.488183+00:00", "meta": {"OBJECT_NAME": "STARLINK-35424", "OBJECT_ID": "2025-262E", "EPOCH": "2025-12-10T04:00:01.998720", "MEAN_MOTION": 15.40622742, "ECCENTRICITY": 0.0001571, "INCLINATION": 43, "RA_OF_ASC_NODE": 86.3144, "ARG_OF_PERICENTER": 270.9792, "MEAN_ANOMALY": 41.5671, "EPHEMERIS_TYPE": 0, "CLASSIFICATION_TYPE": "U", "NORAD_CAT_ID": 66460, "ELEMENT_SET_NO": 999, "REV_AT_EPOCH": 522, "BSTAR": 0.0028377, "MEAN_MOTION_DOT": 0.00119807, "MEAN_MOTION_DDOT": 0}, "tle": {"line1": "1 66460U 25262E   25344.16668980  .00119807  00000+0  28377-2 0  9995", "line2": "2 66460  43.0000  86.3144 0001571 270.9792  41.5671 15.40622742  5223"}}, "geometry": {"type": "Point", "coordinates": [-29.18950000374414, -40.391543953774445]}}, {"type": "Feature", "properties": {"norad_id": 66461, "name": "STARLINK-35132", "group": "last-30-days", "lat": -42.7137994660795, "lon": -12.956698296710139, "alt_km": 446.06236127701595, "timestamp": "2025-12-10T09:57:43.488193+00:00", "meta": {"OBJECT_NAME": "STARLINK-35132", "OBJECT_ID": "2025-262F", "EPOCH": "2025-12-10T04:00:01.998720", "MEAN_MOTION": 15.40651084, "ECCENTRICITY": 0.000209, "INCLINATION": 43.0002, "RA_OF_ASC_NODE": 86.2837, "ARG_OF_PERICENTER": 285.3869, "MEAN_ANOMALY": 39.5261, "EPHEMERIS_TYPE": 0, "CLASSIFICATION_TYPE": "U", "NORAD_CAT_ID": 66461, "ELEMENT_SET_NO": 999, "REV_AT_EPOCH": 522, "BSTAR": 0.002828, "MEAN_MOTION_DOT": 0.00119504, "MEAN_MOTION_DDOT": 0}, "tle": {"line1": "1 66461U 25262F   25344.16668980  .00119504  00000+0  28280-2 0  9993", "line2": "2 66461  43.0002  86.2837 0002090 285.3869  39.5261 15.40651084  5229"}}, "geometry": {"type": "Point", "coordinates": [-12.956698296710139, -42.7137994660795]}}, {"type": "Feature", "properties": {"norad_id": 66462, "name": "STARLINK-35499", "group": "last-30-days", "lat": -42.609932598894744, "lon": 4.020230199121943, "alt_km": 446.5106952593287, "timestamp": "2025-12-10T09:57:43.488206+00:00", "meta": {"OBJECT_NAME": "STARLINK-35499", "OBJECT_ID": "2025-262G", "EPOCH": "2025-12-10T04:00:01.998720", "MEAN_MOTION": 15.40623642, "ECCENTRICITY": 0.0001473, "INCLINATION": 43, "RA_OF_ASC_NODE": 86.252, "ARG_OF_PERICENTER": 265.3306, "MEAN_ANOMALY": 72.1087, "EPHEMERIS_TYPE": 0, "CLASSIFICATION_TYPE": "U", "NORAD_CAT_ID": 66462, "ELEMENT_SET_NO": 999, "REV_AT_EPOCH": 522, "BSTAR": 0.0020743, "MEAN_MOTION_DOT": 0.0008712, "MEAN_MOTION_DDOT": 0}, "tle": {"line1": "1 66462U 25262G   25344.16668980  .00087120  00000+0  20743-2 0  9998", "line2": "2 66462  43.0000  86.2520 0001473 265.3306  72.1087 15.40623642  5223"}}, "geometry": {"type": "Point", "coordinates": [4.020230199121943, -42.609932598894744]}}, {"type": "Feature", "properties": {"norad_id": 66463, "name": "STARLINK-35463", "group": "last-30-days", "lat": -35.66958179782476, "lon": 34.38629392854367, "alt_km": 442.8811571777687, "timestamp": "2025-12-10T09:57:43.488217+00:00", "meta": {"OBJECT_NAME": "STARLINK-35463", "OBJECT_ID": "2025-262H", "EPOCH": "2025-12-10T04:00:01.998720", "MEAN_MOTION": 15.43035617, "ECCENTRICITY": 0.0001585, "INCLINATION": 43.0006, "RA_OF_ASC_NODE": 86.1974, "ARG_OF_PERICENTER": 276.6129, "MEAN_ANOMALY": 83.7241, "EPHEMERIS_TYPE": 0, "CLASSIFICATION_TYPE": "U", "NORAD_CAT_ID": 66463, "ELEMENT_SET_NO": 999, "REV_AT_EPOCH": 522, "BSTAR": -0.056825, "MEAN_MOTION_DOT": -0.0229447, "MEAN_MOTION_DDOT": 0}, "tle": {"line1": "1 66463U 25262H   25344.16668980 -.02294470  00000+0 -56825-1 0  9990", "line2": "2 66463  43.0006  86.1974 0001585 276.6129  83.7241 15.43035617  5226"}}, "geometry": {"type": "Point", "coordinates": [34.38629392854367, -35.66958179782476]}}, {"type": "Feature", "properties": {"norad_id": 66464, "name": "STARLINK-35435", "group": "last-30-days", "lat": -40.07930448174275, "lon": 20.237800418399356, "alt_km": 446.2111131205311, "timestamp": "2025-12-10T09:57:43.488227+00:00", "meta": {"OBJECT_NAME": "STARLINK-35435", "OBJECT_ID": "2025-262J", "EPOCH": "2025-12-10T04:00:01.998720", "MEAN_MOTION": 15.41012621, "ECCENTRICITY": 0.0001575, "INCLINATION": 43.0005, "RA_OF_ASC_NODE": 86.2226, "ARG_OF_PERICENTER": 277.8739, "MEAN_ANOMALY": 71.8276, "EPHEMERIS_TYPE": 0, "CLASSIFICATION_TYPE": "U", "NORAD_CAT_ID": 66464, "ELEMENT_SET_NO": 999, "REV_AT_EPOCH": 522, "BSTAR": -0.014545, "MEAN_MOTION_DOT": -0.00570464, "MEAN_MOTION_DDOT": 0}, "tle": {"line1": "1 66464U 25262J   25344.16668980 -.00570464  00000+0 -14545-1 0  9992", "line2": "2 66464  43.0005  86.2226 0001575 277.8739  71.8276 15.41012621  5220"}}, "geometry": {"type": "Point", "coordinates": [20.237800418399356, -40.07930448174275]}}]}